SENTINEL-6              
1 46984U 20086A   23332.24917750 -.00000051  00000+0  45512-4 0  9992
2 46984  66.0412 270.6949 0007825 269.0874  90.9245 12.80931488141084
